NORAD_CAT_ID,OBJECT_NAME,OBJECT_TYPE,EPOCH,MEAN_MOTION,ECCENTRICITY,INCLINATION,RA_OF_ASC_NODE,ARG_OF_PERICENTER,MEAN_ANOMALY,BSTAR,MEAN_MOTION_DOT,MEAN_MOTION_DDOT,TLE_LINE0,TLE_LINE1,TLE_LINE2,SEMIMAJOR_AXIS,PERIOD,APOGEE,PERIGEE,DECAYED
54799.0,STARLINK-5421,PAYLOAD,2024-03-09 06:43:03,15.08837378,0.0001458,53.2177,58.0178,85.0798,275.036,4.344e-05,4.03e-06,0.0,0 STARLINK-5421,1 54799U 22175AT  24069.27990039  .00000403  00000-0  43440-4 0  9997,2 54799  53.2177  58.0178 0001458  85.0798 275.0360 15.08837378 70005,6917.888,95.438,540.762,538.745,0.0
54799.0,STARLINK-5421,PAYLOAD,2024-03-09 16:15:21,15.08845414,0.0001783,53.2196,56.232,80.9714,279.148,0.00010476,1.38e-05,0.0,0 STARLINK-5421,1 54799U 22175AT  24069.67733446  .00001380  00000-0  10476-3 0  9995,2 54799  53.2196  56.2320 0001783  80.9714 279.1480 15.08845414 67901,6917.864,95.437,540.962,538.495,0.0
54799.0,STARLINK-5421,PAYLOAD,2024-03-09 22:36:55,15.08822726,0.0001087,53.2182,55.0435,91.0053,269.1064,5.9029e-06,-1.94e-06,0.0,0 STARLINK-5421,1 54799U 22175AT  24069.94230971 -.00000194  00000-0  59029-5 0  9992,2 54799  53.2182  55.0435 0001087  91.0053 269.1064 15.08822726 70100,6917.933,95.439,540.55,539.046,0.0
54799.0,STARLINK-5421,PAYLOAD,2024-03-10 03:23:04,15.08838199,0.0002037,53.2178,54.1528,84.9775,275.145,0.00011003,1.463e-05,0.0,0 STARLINK-5421,1 54799U 22175AT  24070.14102051  .00001463  00000-0  11003-3 0  9990,2 54799  53.2178  54.1528 0002037  84.9775 275.1450 15.08838199 67974,6917.886,95.438,541.16,538.342,0.0
54799.0,STARLINK-5421,PAYLOAD,2024-03-10 08:09:13,15.08841861,0.0001522,53.2173,53.2616,84.142,275.9746,7.0703e-05,8.37e-06,0.0,0 STARLINK-5421,1 54799U 22175AT  24070.33973637  .00000837  00000-0  70703-4 0  9994,2 54799  53.2173  53.2616 0001522  84.1420 275.9746 15.08841861 70165,6917.875,95.437,540.793,538.687,0.0
54799.0,STARLINK-5421,PAYLOAD,2024-03-10 16:06:08,15.08846079,0.0001295,53.2168,51.774,91.1078,269.0063,0.00011719,1.578e-05,0.0,0 STARLINK-5421,1 54799U 22175AT  24070.67093314  .00001578  00000-0  11719-3 0  9990,2 54799  53.2168  51.7740 0001295  91.1078 269.0063 15.08846079 68051,6917.862,95.437,540.623,538.831,0.0
54799.0,STARLINK-5421,PAYLOAD,2024-03-10 22:27:42,15.08823247,9.87e-05,53.2185,50.5822,102.0771,258.0332,-5.0604e-05,-1.093e-05,0.0,0 STARLINK-5421,1 54799U 22175AT  24070.93590536 -.00001093  00000-0 -50604-4 0  9998,2 54799  53.2185  50.5822 0000987 102.0771 258.0332 15.08823247 70251,6917.932,95.439,540.479,539.114,0.0
54799.0,STARLINK-5421,PAYLOAD,2024-03-11 04:49:14,15.08841804,0.0001377,53.2164,49.3942,91.3292,268.7858,0.00011128,1.484e-05,0.0,0 STARLINK-5421,1 54799U 22175AT  24071.20085764  .00001484  00000-0  11128-3 0  9990,2 54799  53.2164  49.3942 0001377  91.3292 268.7858 15.08841804 68133,6917.875,95.437,540.692,538.787,0.0
54799.0,STARLINK-5421,PAYLOAD,2024-03-11 15:56:55,15.08852482,0.0001352,53.2173,47.3119,91.455,268.6597,0.00023148,3.399e-05,0.0,0 STARLINK-5421,1 54799U 22175AT  24071.66453124  .00003399  00000-0  23148-3 0  9991,2 54799  53.2173  47.3119 0001352  91.4550 268.6597 15.08852482 68209,6917.842,95.437,540.643,538.772,0.0
54799.0,STARLINK-5421,PAYLOAD,2024-03-12 04:40:01,15.08839481,0.0001729,53.2198,44.931,120.7897,239.3265,-5.8548e-06,-3.81e-06,0.0,0 STARLINK-5421,1 54799U 22175AT  24072.19445673 -.00000381  00000-0 -58548-5 0  9994,2 54799  53.2198  44.9310 0001729 120.7897 239.3265 15.08839481 68289,6917.882,95.438,540.943,538.551,0.0
54799.0,STARLINK-5421,PAYLOAD,2024-03-12 07:50:47,15.08838647,0.0001746,53.2197,44.3364,120.3673,239.7492,6.7449e-06,-1.81e-06,0.0,0 STARLINK-5421,1 54799U 22175AT  24072.32693737 -.00000181  00000-0  67449-5 0  9992,2 54799  53.2197  44.3364 0001746 120.3673 239.7492 15.08838647 70460,6917.885,95.438,540.957,538.542,0.0
54799.0,STARLINK-5421,PAYLOAD,2024-03-13 04:30:47,15.0884432,0.0001397,53.2183,40.4739,96.5685,263.5466,8.3146e-05,1.036e-05,0.0,0 STARLINK-5421,1 54799U 22175AT  24073.18805387  .00001036  00000-0  83146-4 0  9993,2 54799  53.2183  40.4739 0001397  96.5685 263.5466 15.08844320 70592,6917.867,95.437,540.699,538.766,0.0
54799.0,STARLINK-5421,PAYLOAD,2024-03-13 22:00:02,15.08833896,0.0001444,53.2187,37.2024,95.3217,264.794,0.00010275,1.347e-05,0.0,0 STARLINK-5421,1 54799U 22175AT  24073.91670047  .00001347  00000-0  10275-3 0  9994,2 54799  53.2187  37.2024 0001444  95.3217 264.7940 15.08833896 70707,6917.899,95.438,540.763,538.765,0.0
54799.0,STARLINK-5421,PAYLOAD,2024-03-14 04:21:35,15.08842978,0.0001383,53.2185,36.0163,93.8841,266.231,5.5164e-05,5.9e-06,0.0,0 STARLINK-5421,1 54799U 22175AT  24074.18165720  .00000590  00000-0  55164-4 0  9997,2 54799  53.2185  36.0163 0001383  93.8841 266.2310 15.08842978 68586,6917.871,95.437,540.693,538.78,0.0
54799.0,STARLINK-5421,PAYLOAD,2024-03-14 21:50:49,15.08838247,0.0001438,53.218,32.7453,103.7107,256.4045,5.7628e-05,6.29e-06,0.0,0 STARLINK-5421,1 54799U 22175AT  24074.91030046  .00000629  00000-0  57628-4 0  9990,2 54799  53.2180  32.7453 0001438 103.7107 256.4045 15.08838247 70856,6917.886,95.438,540.746,538.756,0.0
54799.0,STARLINK-5421,PAYLOAD,2024-03-15 02:36:59,15.08834709,0.0001305,53.2182,31.853,94.9256,265.1885,-2.6267e-05,-7.06e-06,0.0,0 STARLINK-5421,1 54799U 22175AT  24075.10902542 -.00000706  00000-0 -26267-4 0  9994,2 54799  53.2182  31.8530 0001305  94.9256 265.1885 15.08834709 68724,6917.897,95.438,540.664,538.859,0.0
54799.0,STARLINK-5421,PAYLOAD,2024-03-15 21:41:37,15.08836816,0.0001313,53.2184,28.284,97.4572,262.6569,5.5632e-05,5.98e-06,0.0,0 STARLINK-5421,1 54799U 22175AT  24075.90390487  .00000598  00000-0  55632-4 0  9996,2 54799  53.2184  28.2840 0001313  97.4572 262.6569 15.08836816 71005,6917.89,95.438,540.663,538.847,0.0
54799.0,STARLINK-5421,PAYLOAD,2024-03-16 04:03:09,15.08839107,0.0001342,53.2182,27.0953,96.9181,263.1964,6.0108e-05,6.69e-06,0.0,0 STARLINK-5421,1 54799U 22175AT  24076.16886392  .00000669  00000-0  60108-4 0  9993,2 54799  53.2182  27.0953 0001342  96.9181 263.1964 15.08839107 68880,6917.883,95.438,540.676,538.82,0.0
54799.0,STARLINK-5421,PAYLOAD,2024-03-16 07:13:55,15.08841111,0.0001355,53.2184,26.4986,99.6056,260.5089,9.5964e-05,1.24e-05,0.0,0 STARLINK-5421,1 54799U 22175AT  24076.30134182  .00001240  00000-0  95964-4 0  9996,2 54799  53.2184  26.4986 0001355  99.6056 260.5089 15.08841111 71067,6917.877,95.437,540.679,538.805,0.0
54799.0,STARLINK-5421,PAYLOAD,2024-03-17 05:29:20,15.08838633,0.0001378,53.2189,22.334,100.6042,259.5105,0.00014868,2.079e-05,0.0,0 STARLINK-5421,1 54799U 22175AT  24077.22870426  .00002079  00000-0  14868-3 0  9990,2 54799  53.2189  22.3340 0001378 100.6042 259.5105 15.08838633 69041,6917.885,95.438,540.703,538.796,0.0
54799.0,STARLINK-5421,PAYLOAD,2024-03-18 03:44:43,15.08844025,0.0001369,53.2191,18.1712,94.5153,265.5995,9.1881e-05,1.175e-05,0.0,0 STARLINK-5421,1 54799U 22175AT  24078.15606212  .00001175  00000-0  91881-4 0  9990,2 54799  53.2191  18.1712 0001369  94.5153 265.5995 15.08844025 71346,6917.868,95.437,540.68,538.786,0.0
54799.0,STARLINK-5421,PAYLOAD,2024-03-18 19:38:35,15.08842243,0.0001318,53.2186,15.2006,89.1953,270.919,8.3295e-05,1.038e-05,0.0,0 STARLINK-5421,1 54799U 22175AT  24078.81846298  .00001038  00000-0  83295-4 0  9991,2 54799  53.2186  15.2006 0001318  89.1953 270.9190 15.08842243 69283,6917.874,95.437,540.65,538.827,0.0
54799.0,STARLINK-5421,PAYLOAD,2024-03-19 02:00:07,15.08845499,0.0001244,53.2182,14.0116,97.8054,262.3079,8.1763e-05,1.014e-05,0.0,0 STARLINK-5421,1 54799U 22175AT  24079.08341961  .00001014  00000-0  81763-4 0  9990,2 54799  53.2182  14.0116 0001244  97.8054 262.3079 15.08845499 71486,6917.864,95.437,540.589,538.868,0.0
54799.0,STARLINK-5421,PAYLOAD,2024-03-20 01:50:53,15.08850124,0.0001238,53.2184,9.5516,96.3206,263.7927,0.00011906,1.608e-05,0.0,0 STARLINK-5421,1 54799U 22175AT  24080.07701270  .00001608  00000-0  11906-3 0  9994,2 54799  53.2184   9.5516 0001238  96.3206 263.7927 15.08850124 69471,6917.849,95.437,540.571,538.858,0.0
54799.0,STARLINK-5421,PAYLOAD,2024-03-20 22:30:55,15.08841716,0.0001565,53.2187,5.6833,129.8115,230.3015,-2.0699e-05,-6.17e-06,0.0,0 STARLINK-5421,1 54799U 22175AT  24080.93813851 -.00000617  00000-0 -20699-4 0  9999,2 54799  53.2187   5.6833 0001565 129.8115 230.3015 15.08841716 71767,6917.875,95.437,540.823,538.657,0.0
54799.0,STARLINK-5421,PAYLOAD,2024-03-21 01:41:41,15.08833555,0.0001224,53.2184,5.0899,109.7429,250.3695,-9.6089e-05,-1.816e-05,0.0,0 STARLINK-5421,1 54799U 22175AT  24081.07062254 -.00001816  00000-0 -96089-4 0  9996,2 54799  53.2184   5.0899 0001224 109.7429 250.3695 15.08833555 69627,6917.9,95.438,540.612,538.918,0.0
54799.0,STARLINK-5421,PAYLOAD,2024-03-21 22:21:42,15.08843274,0.0001194,53.2194,1.2256,111.6562,248.4558,4.1166e-05,3.67e-06,0.0,0 STARLINK-5421,1 54799U 22175AT  24081.93174090  .00000367  00000-0  41166-4 0  9997,2 54799  53.2194   1.2256 0001194 111.6562 248.4558 15.08843274 71919,6917.87,95.437,540.561,538.909,0.0
54799.0,STARLINK-5421,PAYLOAD,2024-03-22 01:32:28,15.08847637,0.0001363,53.2187,0.6308,109.7798,250.3341,0.00015488,2.178e-05,0.0,0 STARLINK-5421,1 54799U 22175AT  24082.06421830  .00002178  00000-0  15488-3 0  9998,2 54799  53.2187   0.6308 0001363 109.7798 250.3341 15.08847637 69779,6917.857,95.437,540.665,538.779,0.0
54799.0,STARLINK-5421,PAYLOAD,2024-03-22 20:37:07,15.08825347,8.71e-05,53.219,357.0613,89.5504,270.5588,8.0416e-05,9.92e-06,0.0,0 STARLINK-5421,1 54799U 22175AT  24082.85911185  .00000992  00000-0  80416-4 0  9998,2 54799  53.2190 357.0613 0000871  89.5504 270.5588 15.08825347 69898,6917.925,95.438,540.393,539.188,0.0
54799.0,STARLINK-5421,PAYLOAD,2024-03-22 22:12:30,15.08818485,0.0001198,53.218,356.7631,90.8887,269.2242,-0.00015703,-2.785e-05,0.0,0 STARLINK-5421,1 54799U 22175AT  24082.92535370 -.00002785  00000-0 -15703-3 0  9994,2 54799  53.2180 356.7631 0001198  90.8887 269.2242 15.08818485 72065,6917.946,95.439,540.64,538.982,0.0
